start=new Date('2023-03-15T00:00:00.000Z').valueOf();
sats=[{"MEAN_MOTION_DDOT":"0.0000000000000","NORAD_CAT_ID":"46366","OBJECT_TYPE":"PAYLOAD","ECCENTRICITY":"0.00014410","DECAY_DATE":null,"CLASSIFICATION_TYPE":"U","TLE_LINE1":"1 46366U 20062AT  23073.79545956  .00041097  00000-0  27641-2 0  9993","PERIOD":"95.594","FILE":"3860429","MEAN_ANOMALY":"296.1091","INCLINATION":"53.0518","PERIAPSIS":"546.307","APOAPSIS":"548.303","REF_FRAME":"TEME","EPOCH":"2023-03-14T19:05:27.705984","EPHEMERIS_TYPE":"0","REV_AT_EPOCH":"14069","BSTAR":"0.00276410000000","OBJECT_ID":"2020-062AT","TIME_SYSTEM":"UTC","MEAN_MOTION":"15.06370054","SITE":"AFETR","GP_ID":"228080760","ARG_OF_PERICENTER":"64.0046","COUNTRY_CODE":"US","ELEMENT_SET_NO":"999","MEAN_ELEMENT_THEORY":"SGP4","OBJECT_NAME":"STARLINK-1651","RCS_SIZE":"LARGE","TLE_LINE2":"2 46366  53.0518 188.8331 0001441  64.0046 296.1091 15.06370054140690","LAUNCH_DATE":"2020-09-03","SEMIMAJOR_AXIS":"6925.440","RA_OF_ASC_NODE":"188.8331","MEAN_MOTION_DOT":"0.00041097","CENTER_NAME":"EARTH"},{"REV_AT_EPOCH":"14035","EPHEMERIS_TYPE":"0","MEAN_MOTION":"15.06434817","OBJECT_ID":"2020-062AV","TIME_SYSTEM":"UTC","BSTAR":"0.00251550000000","RCS_SIZE":"LARGE","TLE_LINE2":"2 46368  53.0547 213.8240 0001139  58.2476 301.8624 15.06434817140355","OBJECT_NAME":"STARLINK-1658","GP_ID":"228081215","ELEMENT_SET_NO":"999","COUNTRY_CODE":"US","MEAN_ELEMENT_THEORY":"SGP4","ARG_OF_PERICENTER":"58.2476","SITE":"AFETR","CENTER_NAME":"EARTH","MEAN_MOTION_DOT":"0.00037422","RA_OF_ASC_NODE":"213.8240","LAUNCH_DATE":"2020-09-03","SEMIMAJOR_AXIS":"6925.242","ECCENTRICITY":"0.00011390","OBJECT_TYPE":"PAYLOAD","NORAD_CAT_ID":"46368","MEAN_MOTION_DDOT":"0.0000000000000","TLE_LINE1":"1 46368U 20062AV  23073.79408898  .00037422  00000-0  25155-2 0  9993","CLASSIFICATION_TYPE":"U","DECAY_DATE":null,"PERIAPSIS":"546.318","FILE":"3860435","INCLINATION":"53.0547","MEAN_ANOMALY":"301.8624","PERIOD":"95.590","EPOCH":"2023-03-14T19:03:29.287872","REF_FRAME":"TEME","APOAPSIS":"547.896"},{"MEAN_MOTION_DDOT":"0.0000000000000","OBJECT_TYPE":"PAYLOAD","ECCENTRICITY":"0.00013100","NORAD_CAT_ID":"46370","DECAY_DATE":null,"TLE_LINE1":"1 46370U 20062AX  23073.75809676  .00018061  00000-0  12257-2 0  9998","CLASSIFICATION_TYPE":"U","PERIOD":"95.587","FILE":"3860643","MEAN_ANOMALY":"267.5366","INCLINATION":"53.0550","PERIAPSIS":"546.067","APOAPSIS":"547.881","REF_FRAME":"TEME","EPOCH":"2023-03-14T18:11:39.560064","REV_AT_EPOCH":"14016","EPHEMERIS_TYPE":"0","OBJECT_ID":"2020-062AX","TIME_SYSTEM":"UTC","BSTAR":"0.00122570000000","MEAN_MOTION":"15.06478158","SITE":"AFETR","OBJECT_NAME":"STARLINK-1670","GP_ID":"228104752","COUNTRY_CODE":"US","ELEMENT_SET_NO":"999","MEAN_ELEMENT_THEORY":"SGP4","ARG_OF_PERICENTER":"92.5773","RCS_SIZE":"LARGE","TLE_LINE2":"2 46370  53.0550 213.9991 0001310  92.5773 267.5366 15.06478158140164","LAUNCH_DATE":"2020-09-03","SEMIMAJOR_AXIS":"6925.109","RA_OF_ASC_NODE":"213.9991","MEAN_MOTION_DOT":"0.00018061","CENTER_NAME":"EARTH"},{"NORAD_CAT_ID":"46371","OBJECT_TYPE":"PAYLOAD","ECCENTRICITY":"0.00016430","MEAN_MOTION_DDOT":"0.0000000000000","CLASSIFICATION_TYPE":"U","TLE_LINE1":"1 46371U 20062AY  23073.68444874  .00032925  00000-0  22181-2 0  9998","DECAY_DATE":null,"PERIAPSIS":"546.031","MEAN_ANOMALY":"311.0926","FILE":"3860643","INCLINATION":"53.0530","PERIOD":"95.591","EPOCH":"2023-03-14T16:25:36.371136","REF_FRAME":"TEME","APOAPSIS":"548.307","EPHEMERIS_TYPE":"0","REV_AT_EPOCH":"14015","MEAN_MOTION":"15.06414524","BSTAR":"0.00221810000000","OBJECT_ID":"2020-062AY","TIME_SYSTEM":"UTC","TLE_LINE2":"2 46371  53.0530 214.3324 0001643  49.0205 311.0926 15.06414524140157","RCS_SIZE":"LARGE","GP_ID":"228105002","COUNTRY_CODE":"US","MEAN_ELEMENT_THEORY":"SGP4","ELEMENT_SET_NO":"999","ARG_OF_PERICENTER":"49.0205","OBJECT_NAME":"STARLINK-1688","SITE":"AFETR","MEAN_MOTION_DOT":"0.00032925","CENTER_NAME":"EARTH","RA_OF_ASC_NODE":"214.3324","LAUNCH_DATE":"2020-09-03","SEMIMAJOR_AXIS":"6925.304"},{"OBJECT_TYPE":"PAYLOAD","ECCENTRICITY":"0.00012010","NORAD_CAT_ID":"46372","MEAN_MOTION_DDOT":"0.0000000000000","TLE_LINE1":"1 46372U 20062AZ  23073.82634010  .00004367  00000-0  31179-3 0  9995","CLASSIFICATION_TYPE":"U","DECAY_DATE":null,"PERIAPSIS":"546.337","MEAN_ANOMALY":"275.7171","FILE":"3860643","INCLINATION":"53.0533","PERIOD":"95.591","EPOCH":"2023-03-14T19:49:55.784640","REF_FRAME":"TEME","APOAPSIS":"548.001","REV_AT_EPOCH":"13989","EPHEMERIS_TYPE":"0","MEAN_MOTION":"15.06414522","TIME_SYSTEM":"UTC","OBJECT_ID":"2020-062AZ","BSTAR":"0.00031179000000","RCS_SIZE":"LARGE","TLE_LINE2":"2 46372  53.0533 233.6923 0001201  84.3955 275.7171 15.06414522139899","OBJECT_NAME":"STARLINK-1689","ARG_OF_PERICENTER":"84.3955","GP_ID":"228105254","COUNTRY_CODE":"US","ELEMENT_SET_NO":"999","MEAN_ELEMENT_THEORY":"SGP4","SITE":"AFETR","CENTER_NAME":"EARTH","MEAN_MOTION_DOT":"0.00004367","RA_OF_ASC_NODE":"233.6923","SEMIMAJOR_AXIS":"6925.304","LAUNCH_DATE":"2020-09-03"},{"RA_OF_ASC_NODE":"163.8742","MEAN_MOTION_DOT":"0.00000516","CENTER_NAME":"EARTH","LAUNCH_DATE":"2020-09-03","SEMIMAJOR_AXIS":"6927.842","OBJECT_NAME":"STARLINK-1711","GP_ID":"228105992","ELEMENT_SET_NO":"999","COUNTRY_CODE":"US","ARG_OF_PERICENTER":"91.0204","MEAN_ELEMENT_THEORY":"SGP4","RCS_SIZE":"LARGE","TLE_LINE2":"2 46374  53.0556 163.8742 0001407  91.0204 269.0946 15.05586915140869","SITE":"AFETR","OBJECT_ID":"2020-062BB","TIME_SYSTEM":"UTC","BSTAR":"0.00005454000000","MEAN_MOTION":"15.05586915","REV_AT_EPOCH":"14086","EPHEMERIS_TYPE":"0","EPOCH":"2023-03-14T18:21:35.503200","REF_FRAME":"TEME","APOAPSIS":"550.681","INCLINATION":"53.0556","FILE":"3860643","MEAN_ANOMALY":"269.0946","PERIAPSIS":"548.732","PERIOD":"95.644","DECAY_DATE":null,"TLE_LINE1":"1 46374U 20062BB  23073.76499425  .00000516  00000-0  54540-4 0  9999","CLASSIFICATION_TYPE":"U","MEAN_MOTION_DDOT":"0.0000000000000","ECCENTRICITY":"0.00014070","OBJECT_TYPE":"PAYLOAD","NORAD_CAT_ID":"46374"},{"CENTER_NAME":"EARTH","MEAN_MOTION_DOT":"0.00000720","RA_OF_ASC_NODE":"189.7522","LAUNCH_DATE":"2020-09-03","SEMIMAJOR_AXIS":"6925.384","RCS_SIZE":"LARGE","TLE_LINE2":"2 46375  53.0544 189.7522 0001316  96.3709 263.7430 15.06388378140488","OBJECT_NAME":"STARLINK-1724","COUNTRY_CODE":"US","GP_ID":"228073310","ELEMENT_SET_NO":"999","MEAN_ELEMENT_THEORY":"SGP4","ARG_OF_PERICENTER":"96.3709","SITE":"AFETR","MEAN_MOTION":"15.06388378","OBJECT_ID":"2020-062BC","TIME_SYSTEM":"UTC","BSTAR":"0.00006727100000","REV_AT_EPOCH":"14048","EPHEMERIS_TYPE":"0","REF_FRAME":"TEME","EPOCH":"2023-03-14T14:08:16.187136","APOAPSIS":"548.161","PERIAPSIS":"546.338","INCLINATION":"53.0544","FILE":"3860373","MEAN_ANOMALY":"263.7430","PERIOD":"95.593","TLE_LINE1":"1 46375U 20062BC  23073.58907624  .00000720  00000-0  67271-4 0  9997","CLASSIFICATION_TYPE":"U","DECAY_DATE":null,"OBJECT_TYPE":"PAYLOAD","ECCENTRICITY":"0.00013160","NORAD_CAT_ID":"46375","MEAN_MOTION_DDOT":"0.0000000000000"},{"MEAN_MOTION_DDOT":"0.0000000000000","ECCENTRICITY":"0.00012620","OBJECT_TYPE":"PAYLOAD","NORAD_CAT_ID":"46376","DECAY_DATE":null,"TLE_LINE1":"1 46376U 20062BD  23073.86916409  .00048415  00000-0  32524-2 0  9994","CLASSIFICATION_TYPE":"U","PERIOD":"95.596","INCLINATION":"53.0521","FILE":"3860643","MEAN_ANOMALY":"273.9575","PERIAPSIS":"546.531","APOAPSIS":"548.279","REF_FRAME":"TEME","EPOCH":"2023-03-14T20:51:35.777376","REV_AT_EPOCH":"14052","EPHEMERIS_TYPE":"0","OBJECT_ID":"2020-062BD","TIME_SYSTEM":"UTC","BSTAR":"0.00325240000000","MEAN_MOTION":"15.06337547","SITE":"AFETR","OBJECT_NAME":"STARLINK-1742","COUNTRY_CODE":"US","GP_ID":"228104504","ELEMENT_SET_NO":"999","ARG_OF_PERICENTER":"86.1558","MEAN_ELEMENT_THEORY":"SGP4","TLE_LINE2":"2 46376  53.0521 188.5017 0001262  86.1558 273.9575 15.06337547140529","RCS_SIZE":"LARGE","LAUNCH_DATE":"2020-09-03","SEMIMAJOR_AXIS":"6925.540","RA_OF_ASC_NODE":"188.5017","MEAN_MOTION_DOT":"0.00048415","CENTER_NAME":"EARTH"},{"MEAN_MOTION_DDOT":"0.0000000000000","OBJECT_TYPE":"PAYLOAD","ECCENTRICITY":"0.00012790","NORAD_CAT_ID":"46380","DECAY_DATE":null,"TLE_LINE1":"1 46380U 20062BH  23073.76920850  .00005405  00000-0  38132-3 0  9997","CLASSIFICATION_TYPE":"U","FILE":"3860643","INCLINATION":"53.0516","MEAN_ANOMALY":"268.2618","PERIAPSIS":"546.292","PERIOD":"95.591","EPOCH":"2023-03-14T18:27:39.614400","REF_FRAME":"TEME","APOAPSIS":"548.063","REV_AT_EPOCH":"14016","EPHEMERIS_TYPE":"0","OBJECT_ID":"2020-062BH","TIME_SYSTEM":"UTC","BSTAR":"0.00038132000000","MEAN_MOTION":"15.06411751","OBJECT_NAME":"STARLINK-1758","GP_ID":"228105753","ARG_OF_PERICENTER":"91.8517","COUNTRY_CODE":"US","ELEMENT_SET_NO":"999","MEAN_ELEMENT_THEORY":"SGP4","RCS_SIZE":"LARGE","TLE_LINE2":"2 46380  53.0516 213.9497 0001279  91.8517 268.2618 15.06411751140164","SITE":"AFETR","RA_OF_ASC_NODE":"213.9497","MEAN_MOTION_DOT":"0.00005405","CENTER_NAME":"EARTH","SEMIMAJOR_AXIS":"6925.313","LAUNCH_DATE":"2020-09-03"},{"SITE":"AFETR","COUNTRY_CODE":"US","GP_ID":"228105493","ELEMENT_SET_NO":"999","ARG_OF_PERICENTER":"66.8882","MEAN_ELEMENT_THEORY":"SGP4","OBJECT_NAME":"STARLINK-1769","RCS_SIZE":"LARGE","TLE_LINE2":"2 46382  53.0524 189.3281 0001287  66.8882 293.2242 15.06348557140500","SEMIMAJOR_AXIS":"6925.506","LAUNCH_DATE":"2020-09-03","RA_OF_ASC_NODE":"189.3281","MEAN_MOTION_DOT":"0.00039633","CENTER_NAME":"EARTH","EPHEMERIS_TYPE":"0","REV_AT_EPOCH":"14050","BSTAR":"0.00266840000000","OBJECT_ID":"2020-062BK","TIME_SYSTEM":"UTC","MEAN_MOTION":"15.06348557","PERIOD":"95.595","INCLINATION":"53.0524","FILE":"3860643","MEAN_ANOMALY":"293.2242","PERIAPSIS":"546.480","APOAPSIS":"548.263","EPOCH":"2023-03-14T16:26:13.200864","REF_FRAME":"TEME","MEAN_MOTION_DDOT":"0.0000000000000","NORAD_CAT_ID":"46382","OBJECT_TYPE":"PAYLOAD","ECCENTRICITY":"0.00012870","DECAY_DATE":null,"CLASSIFICATION_TYPE":"U","TLE_LINE1":"1 46382U 20062BK  23073.68487501  .00039633  00000-0  26684-2 0  9999"}];
